IRIDIUM 106             
1 41917U 17003A   25023.78530248  .00000204  00000+0  65843-4 0  9997
2 41917  86.3984 301.3967 0002378  90.4613 269.6855 14.34218886420196
IRIDIUM 103             
1 41918U 17003B   25023.21446593  .00000811  00000+0  28235-3 0  9992
2 41918  86.3982 301.5365 0001600  97.1454 262.9924 14.34216705420138
IRIDIUM 109             
1 41919U 17003C   25023.22081282 -.00000033  00000+0 -18733-4 0  9995
2 41919  86.3981 301.5848 0001822  79.7854 280.3547 14.34217189420109
IRIDIUM 102             
1 41920U 17003D   25023.18909988  .00000469  00000+0  16037-3 0  9999
2 41920  86.3978 301.5316 0002247  82.5726 277.5725 14.34217433420185
IRIDIUM 105             
1 41921U 17003E   25023.15983543  .00000139  00000+0  42510-4 0  9996
2 41921  86.3951 269.9640 0001940  88.3079 271.8339 14.34218776422033
IRIDIUM 104             
1 41922U 17003F   25023.20178378  .00000118  00000+0  35190-4 0  9998
2 41922  86.3981 301.5619 0001614  78.3082 281.8295 14.34217703420171
IRIDIUM 114             
1 41923U 17003G   25023.20811013  .00000393  00000+0  13325-3 0  9999
2 41923  86.3982 301.5446 0001939  90.1147 270.0271 14.34214669420155
IRIDIUM 108             
1 41924U 17003H   25022.95733718  .00000371  00000+0  12542-3 0  9992
2 41924  86.3947 269.9594 0002261  87.3284 272.8170 14.34216089421974
